H1 CPF  1  DGF 2022 09 29 02  7721 larets     NONE      
H2   304206 5557    27944 2022 09 22 00 00 00 2022 09 29 00 00 00    30 1 1  0 0 0
H5  0.0650
H9
10 0 59849  61200.000000  0       4713255.533      -4726446.097      -2333427.947
10 0 59849  61230.000000  0       4624545.471      -4706238.178      -2542269.366
10 0 59849  61260.000000  0       4531262.786      -4680877.316      -2748523.308
10 0 59849  61290.000000  0       4433524.786      -4650369.944      -2951980.172
10 0 59849  61320.000000  0       4331453.240      -4614728.231      -3152433.267
10 0 59849  61350.000000  0       4225174.215      -4573970.081      -3349679.016
10 0 59849  61380.000000  0       4114817.928      -4528119.132      -3543517.170
10 0 59849  61410.000000  0       4000518.580      -4477204.738      -3733751.002
10 0 59849  61440.000000  0       3882414.192      -4421261.960      -3920187.512
10 0 59849  61470.000000  0       3760646.437      -4360331.538      -4102637.617
10 0 59849  61500.000000  0       3635360.466      -4294459.860      -4280916.344
10 0 59849  61530.000000  0       3506704.733      -4223698.926      -4454843.014
10 0 59849  61560.000000  0       3374830.816      -4148106.303      -4624241.416
10 0 59849  61590.000000  0       3239893.236      -4067745.077      -4788939.987
10 0 59849  61620.000000  0       3102049.274      -3982683.797      -4948771.978
10 0 59849  61650.000000  0       2961458.784      -3892996.412      -5103575.613
10 0 59849  61680.000000  0       2818284.009      -3798762.204      -5253194.250
10 0 59849  61710.000000  0       2672689.392      -3700065.716      -5397476.528
10 0 59849  61740.000000  0       2524841.388      -3596996.672      -5536276.515
10 0 59849  61770.000000  0       2374908.279      -3489649.898      -5669453.849
10 0 59849  61800.000000  0       2223059.975      -3378125.229      -5796873.876
10 0 59849  61830.000000  0       2069467.831      -3262527.417      -5918407.778
10 0 59849  61860.000000  0       1914304.444      -3142966.030      -6033932.697
10 0 59849  61890.000000  0       1757743.468      -3019555.352      -6143331.859
10 0 59849  61920.000000  0       1599959.415      -2892414.264      -6246494.684
10 0 59849  61950.000000  0       1441127.459      -2761666.129      -6343316.893
10 0 59849  61980.000000  0       1281423.248      -2627438.676      -6433700.605
10 0 59849  62010.000000  0       1121022.704      -2489863.862      -6517554.433
10 0 59849  62040.000000  0        960101.836      -2349077.751      -6594793.568
10 0 59849  62070.000000  0        798836.544      -2205220.374      -6665339.854
10 0 59849  62100.000000  0        637402.437      -2058435.590      -6729121.868
10 0 59849  62130.000000  0        475974.637      -1908870.946      -6786074.984
10 0 59849  62160.000000  0        314727.593      -1756677.526      -6836141.432
10 0 59849  62190.000000  0        153834.901      -1602009.800      -6879270.351
10 0 59849  62220.000000  0         -6530.886      -1445025.473      -6915417.844
10 0 59849  62250.000000  0       -166198.434      -1285885.320      -6944547.009
10 0 59849  62280.000000  0       -324997.808      -1124753.029      -6966627.986
10 0 59849  62310.000000  0       -482760.652       -961795.036      -6981637.981
10 0 59849  62340.000000  0       -639320.365       -797180.357      -6989561.292
10 0 59849  62370.000000  0       -794512.275       -631080.409      -6990389.324
10 0 59849  62400.000000  0       -948173.809       -463668.843      -6984120.603
10 0 59849  62430.000000  0      -1100144.668       -295121.360      -6970760.771
10 0 59849  62460.000000  0      -1250266.982       -125615.531      -6950322.589
10 0 59849  62490.000000  0      -1398385.482         44669.381      -6922825.926
10 0 59849  62520.000000  0      -1544347.652        215552.611      -6888297.741
10 0 59849  62550.000000  0      -1688003.889        386852.080      -6846772.067
10 0 59849  62580.000000  0      -1829207.652        558384.585      -6798289.977
10 0 59849  62610.000000  0      -1967815.613        729965.995      -6742899.554
10 0 59849  62640.000000  0      -2103687.801        901411.441      -6680655.846
10 0 59849  62670.000000  0      -2236687.741       1072535.517      -6611620.818
10 0 59849  62700.000000  0      -2366682.595       1243152.474      -6535863.302
10 0 59849  62730.000000  0      -2493543.294       1413076.417      -6453458.932
10 0 59849  62760.000000  0      -2617144.670       1582121.509      -6364490.083
10 0 59849  62790.000000  0      -2737365.584       1750102.175      -6269045.794
10 0 59849  62820.000000  0      -2854089.043       1916833.299      -6167221.693
10 0 59849  62850.000000  0      -2967202.321       2082130.436      -6059119.905
10 0 59849  62880.000000  0      -3076597.071       2245810.013      -5944848.966
10 0 59849  62910.000000  0      -3182169.432       2407689.535      -5824523.719
10 0 59849  62940.000000  0      -3283820.135       2567587.787      -5698265.209
10 0 59849  62970.000000  0      -3381454.603       2725325.045      -5566200.574
10 0 59849  63000.000000  0      -3474983.044       2880723.278      -5428462.916
10 0 59849  63030.000000  0      -3564320.540       3033606.351      -5285191.183
10 0 59849  63060.000000  0      -3649387.129       3183800.231      -5136530.032
10 0 59849  63090.000000  0      -3730107.884       3331133.185      -4982629.686
10 0 59849  63120.000000  0      -3806412.982       3475435.983      -4823645.795
10 0 59849  63150.000000  0      -3878237.771       3616542.098      -4659739.280
10 0 59849  63180.000000  0      -3945522.829       3754287.900      -4491076.177
10 0 59849  63210.000000  0      -4008214.015       3888512.851      -4317827.470
10 0 59849  63240.000000  0      -4066262.517       4019059.698      -4140168.926
10 0 59849  63270.000000  0      -4119624.889       4145774.663      -3958280.920
10 0 59849  63300.000000  0      -4168263.092       4268507.628      -3772348.259
10 0 59849  63330.000000  0      -4212144.520       4387112.320      -3582559.994
10 0 59849  63360.000000  0      -4251242.023       4501446.494      -3389109.232
10 0 59849  63390.000000  0      -4285533.929       4611372.108      -3192192.940
10 0 59849  63420.000000  0      -4315004.052       4716755.492      -2992011.739
10 0 59849  63450.000000  0      -4339641.694       4817467.516      -2788769.705
10 0 59849  63480.000000  0      -4359441.643       4913383.758      -2582674.158
10 0 59849  63510.000000  0      -4374404.162       5004384.654      -2373935.451
10 0 59849  63540.000000  0      -4384534.981       5090355.662      -2162766.752
10 0 59849  63570.000000  0      -4389845.269       5171187.410      -1949383.824
10 0 59849  63600.000000  0      -4390351.611       5246775.836      -1734004.795
10 0 59849  63630.000000  0      -4386075.968       5317022.329      -1516849.934
10 0 59849  63660.000000  0      -4377045.640       5381833.864      -1298141.419
10 0 59849  63690.000000  0      -4363293.214       5441123.126      -1078103.093
10 0 59849  63720.000000  0      -4344856.505       5494808.629       -856960.229
10 0 59849  63750.000000  0      -4321778.493       5542814.820       -634939.290
10 0 59849  63780.000000  0      -4294107.254       5585072.177       -412267.694
10 0 59849  63810.000000  0      -4261895.895       5621517.310       -189173.578
10 0 59849  63840.000000  0      -4225202.471       5652093.061         34114.444
10 0 59849  63870.000000  0      -4184089.898       5676748.582        257367.534
10 0 59849  63900.000000  0      -4138625.861       5695439.419        480356.866
10 0 59849  63930.000000  0      -4088882.714       5708127.573        702853.881
10 0 59849  63960.000000  0      -4034937.380       5714781.560        924630.524
10 0 59849  63990.000000  0      -3976871.243       5715376.460       1145459.492
10 0 59849  64020.000000  0      -3914770.031       5709893.969       1365114.475
10 0 59849  64050.000000  0      -3848723.701       5698322.429       1583370.400
10 0 59849  64080.000000  0      -3778826.306       5680656.860       1800003.673
10 0 59849  64110.000000  0      -3705175.867       5656898.971       2014792.416
10 0 59849  64140.000000  0      -3627874.239       5627057.175       2227516.696
10 0 59849  64170.000000  0      -3547026.968       5591146.592       2437958.764
10 0 59849  64200.000000  0      -3462743.155       5549189.041       2645903.277
10 0 59849  64230.000000  0      -3375135.302       5501213.029       2851137.527
10 0 59849  64260.000000  0      -3284319.171       5447253.726       3053451.660
10 0 59849  64290.000000  0      -3190413.626       5387352.944       3252638.892
10 0 59849  64320.000000  0      -3093540.484       5321559.097       3448495.726
10 0 59849  64350.000000  0      -2993824.349       5249927.165       3640822.168
10 0 59849  64380.000000  0      -2891392.458       5172518.632       3829421.926
10 0 59849  64410.000000  0      -2786374.510       5089401.434       4014102.620
10 0 59849  64440.000000  0      -2678902.505       5000649.889       4194675.970
10 0 59849  64470.000000  0      -2569110.574       4906344.621       4370957.992
10 0 59849  64500.000000  0      -2457134.815       4806572.487       4542769.183
10 0 59849  64530.000000  0      -2343113.121       4701426.480       4709934.706
10 0 59849  64560.000000  0      -2227185.007       4591005.642       4872284.562
10 0 59849  64590.000000  0      -2109491.443       4475414.956       5029653.763
10 0 59849  64620.000000  0      -1990174.673       4354765.241       5181882.501
10 0 59849  64650.000000  0      -1869378.043       4229173.034       5328816.298
10 0 59849  64680.000000  0      -1747245.829       4098760.471       5470306.159
10 0 59849  64710.000000  0      -1623923.064       3963655.157       5606208.719
10 0 59849  64740.000000  0      -1499555.362       3823990.035       5736386.379
10 0 59849  64770.000000  0      -1374288.753       3679903.248       5860707.439
99
